POPACS 1                
1 39268U 13055D   22153.55259616  .00008566  00000+0  22111-3 0  9998
2 39268  80.9987 255.5123 0573002 245.4528 108.5929 14.49818059451149
POPACS 2                
1 39269U 13055E   22153.49486506  .00005489  00000+0  14948-3 0  9992
2 39269  81.0111 311.9362 0648209  31.8333 332.0363 14.32764261448044
POPACS 3                
1 39270U 13055F   22153.52745704  .00006713  00000+0  20147-3 0  9995
2 39270  81.0138 344.4906 0690762 123.9754 242.9054 14.21702549426514
ZACUBE-1 (TSHEPISOSAT)  
1 39417U 13066B   22153.51658248  .00001271  00000+0  16071-3 0  9990
2 39417  97.6355 125.6901 0059567  93.4945 267.3084 14.82287181460913
WNISAT-1                
1 39423U 13066H   22153.21793517  .00000357  00000+0  79763-4 0  9995
2 39423  97.7561  35.8192 0173787 185.0640 174.8790 14.53470680452233
TRITON-1                
1 39427U 13066M   22153.55335594  .00001054  00000+0  17229-3 0  9996
2 39427  97.8130  89.9968 0110840 312.9780  46.2174 14.68939020456593
DELFI-N3XT              
1 39428U 13066N   22153.54295421  .00001748  00000+0  27618-3 0  9993
2 39428  97.8144  88.5423 0116675 326.3577  33.0259 14.69133861456346
GOMX-1                  
1 39430U 13066Q   22153.44756931  .00001351  00000+0  24785-3 0  9995
2 39430  97.8111  61.5038 0150782  92.1553 269.6901 14.60148528454105
CUBEBUG-2 (LO-74)       
1 39440U 13066AA  22153.48341896  .00000801  00000+0  11522-3 0  9994
2 39440  97.7253 111.6721 0078712 178.8903 181.2497 14.76967146458072
NEE-02 KRYSAOR          
1 39441U 13066AB  22153.40509159  .00000538  00000+0  82033-4 0  9998
2 39441  97.7362 108.7910 0080210 192.6639 167.2558 14.75715542457810
FUNCUBE-1 (AO-73)       
1 39444U 13066AE  22153.47668570  .00001597  00000+0  19532-3 0  9990
2 39444  97.6236 128.0555 0058478  82.3390 278.4460 14.83359372459309
UWE-3                   
1 39446U 13066AG  22153.39597042  .00000985  00000+0  13310-3 0  9996
2 39446  97.6846 118.1127 0069785 137.3889 223.2767 14.79517218458239
AEROCUBE 5A             
1 39465U 13072D   22153.54519714  .00017643  00000+0  10830-2 0  9993
2 39465 120.4851 256.8857 0197866 262.0689  95.7873 14.95458036147399
AEROCUBE 5B             
1 39466U 13072E   22153.56935359  .00037089  00000+0  14809-2 0  9999
2 39466 120.4616 341.5232 0148350 284.7039  73.7632 15.15308764148476
BRITE-CA1 (TORONTO)     
1 40020U 14033L   22153.41199326  .00000294  00000+0  58275-4 0  9990
2 40020  97.7768 313.1384 0085768 312.0860  47.3072 14.67025491425451
DUCHIFAT-1              
1 40021U 14033M   22153.39284846  .00002064  00000+0  20513-3 0  9990
2 40021  98.0121 103.3228 0014265  90.5031 269.7823 14.92781183432454
NANOSATC-BR1            
1 40024U 14033Q   22153.31924017  .00002076  00000+0  21216-3 0  9990
2 40024  97.9855  96.6968 0013673  96.3301 263.9474 14.91644962431729
QB50P1                  
1 40025U 14033R   22153.55475150  .00001376  00000+0  14685-3 0  9990
2 40025  97.9604  90.8395 0013802 104.3198 255.9553 14.90439005431548
QB50P2                  
1 40032U 14033Y   22153.37306272  .00001433  00000+0  15480-3 0  9994
2 40032  97.9379  86.0939 0013210 102.5555 257.7141 14.89871090431372
PERSEUS-M2              
1 40037U 14033AD  22153.57074442  .00000572  00000+0  69826-4 0  9999
2 40037  97.8970  75.8766 0015523 123.4065 236.8638 14.87077873430917
PERSEUS-M1              
1 40039U 14033AF  22153.49430584  .00000570  00000+0  70254-4 0  9990
2 40039  97.8875  73.5912 0015369 122.7603 237.5096 14.86688057430781
POLYITAN-1              
1 40042U 14033AJ  22153.56917845  .00002056  00000+0  21635-3 0  9991
2 40042  97.9707  92.0245 0016093  97.1469 263.1578 14.90445615431434
TIGRISAT                
1 40043U 14033AK  22153.50687497  .00000679  00000+0  10549-3 0  9994
2 40043  97.6565 343.5747 0058691 203.6060 156.2455 14.74978844427423
AEROCUBE 6A             
1 40045U 14033AM  22153.49045522  .00000772  00000+0  11548-3 0  9995
2 40045  97.6674 352.2738 0056462 191.4396 168.5535 14.76360568427574
AEROCUBE 6B             
1 40046U 14033AN  22153.53855508  .00001322  00000+0  19140-3 0  9992
2 40046  97.6587 350.7932 0055630 189.5908 170.4246 14.76666163427582
UKUBE-1                 
1 40074U 14037F   22153.46414123  .00002051  00000+0  24533-3 0  9995
2 40074  98.3842  33.3489 0004932 353.1785   6.9323 14.85361097427843
BRITE-PL2 (HEWELIUSZ)   
1 40119U 14049B   22153.52105017  .00000657  00000+0  83055-4 0  9999
2 40119  97.8828 249.3002 0015878 292.7737  67.1800 14.85103745421798
FIREBIRD 4              
1 40378U 15003C   22153.54253219  .00011532  00000+0  34797-3 0  9999
2 40378  99.1025  15.3410 0102595  75.8053 285.4553 15.29389191406149
GRIFEX                  
1 40379U 15003D   22153.53849973  .00008154  00000+0  29097-3 0  9990
2 40379  99.1128   1.4195 0117463 117.1302 244.1966 15.22861491405350
CP10 (EXOCUBE)          
1 40380U 15003E   22153.54188649  .00005677  00000+0  22061-3 0  9990
2 40380  99.1215 354.3336 0124950 140.6072 220.4327 15.19593277404896
TIANWANG 1A (TW-1A)     
1 40928U 15051D   22153.54327672  .00035854  00000+0  46475-3 0  9997
2 40928  97.0383 176.3369 0009856  87.9950  63.1994 15.58730744375917
EXACTVIEW 9             
1 40936U 15052G   22153.32133706  .00001257  00000+0  85031-4 0  9998
2 40936   6.0037 281.5701 0010853 300.7687  59.1373 14.77134796360974
AEROCUBE 5C             
1 40965U 15058B   22153.33682512  .00000492  00000+0  71598-4 0  9994
2 40965  64.7755 137.2234 0194855 205.0917 154.0625 14.75581153146732
AEROCUBE 7              
1 40966U 15058C   22153.34093947  .00000649  00000+0  87665-4 0  9990
2 40966  64.7755 134.4467 0192922 204.7702 154.4050 14.76122836146737
ATHENOXAT 1             
1 41168U 15077C   22153.33576103  .00012618  00000+0  52235-3 0  9998
2 41168  14.9824 202.4539 0007434  28.0924  56.1848 15.20715457358003
GALASSIA                
1 41170U 15077E   22152.31863935  .00007709  00000+0  31215-3 0  9990
2 41170  14.9867 200.6826 0010791  42.9641 317.1522 15.20100368357763
VELOX-II                
1 41171U 15077F   22153.51252710  .00005385  00000+0  23908-3 0  9995
2 41171  14.9911 264.3090 0007727 259.7627 100.1823 15.15614612357402
HORYU-4                 
1 41340U 16012D   22153.23322852  .00002204  00000+0  15239-3 0  9992
2 41340  31.0044  96.3203 0013032  48.1840 311.9908 15.03241826345435
E-ST@R-II               
1 41459U 16025D   22153.54537553  .00006434  00000+0  28299-3 0  9996
2 41459  98.1826 317.5982 0145104 320.1937  38.8714 15.13232652335242
AAUSAT 4                
1 41460U 16025E   22153.45556992  .00011641  00000+0  45487-3 0  9990
2 41460  98.1770 323.5689 0125805 296.5687  62.2631 15.18935522335663
BEESAT-4                
1 41619U 16040W   22153.40885825  .00008594  00000+0  29098-3 0  9991
2 41619  97.2172 204.4434 0010597 161.7992 198.3630 15.30768098318424
RAVAN                   
1 41849U 16067B   22153.44262168  .00001963  00000+0  15986-3 0  9992
2 41849  97.9991 289.9875 0017809  32.8269 327.4057 15.00649637303741
CELTEE 1                
1 41850U 16067C   22153.35498812  .00001061  00000+0  94143-4 0  9993
2 41850  97.9952 285.0088 0008555  31.2554 328.9175 14.98402688303499
OPTICUBE 04             
1 41851U 16067D   22153.59602303  .00000602  00000+0  56577-4 0  9991
2 41851  97.9952 284.3283 0009760  37.8923 322.2983 14.97755703303481
AEROCUBE 8D             
1 41852U 16067E   22153.34353583  .00000896  00000+0  80516-4 0  9993
2 41852  97.9929 284.0622 0009793  33.6815 326.5027 14.98296080303430
AEROCUBE 8C             
1 41853U 16067F   22153.32436698  .00001476  00000+0  12923-3 0  9992
2 41853  97.9947 283.8670 0010825  40.3418 319.8604 14.98278451303420
PROMETHEUS 2-1          
1 41854U 16067G   22153.30471299  .00002651  00000+0  22168-3 0  9995
2 41854  97.9921 284.8805 0009788  44.5917 315.6091 14.99374160303474
PROMETHEUS 2-3          
1 41855U 16067H   22153.36423229  .00002316  00000+0  19422-3 0  9999
2 41855  97.9921 285.0206 0008862  39.6792 320.5077 14.99394611303484
INS-1B                  
1 41954U 17008G   22153.41048834  .00007332  00000+0  24582-3 0  9992
2 41954  97.2580 213.6097 0006012 288.6018  71.4571 15.31179293294445
BGUSAT                  
1 41999U 17008BD  22153.46494428  .00019121  00000+0  47920-3 0  9990
2 41999  97.2812 223.9294 0003851 265.4391  94.6415 15.40089709294334
DIDO-2                  
1 42000U 17008BE  22153.43157532  .00003956  00000+0  14568-3 0  9994
2 42000  97.2567 213.1049 0006100 320.6230  39.4566 15.28393305293777
PEASSS                  
1 42015U 17008BV  22153.43559421  .00006889  00000+0  22998-3 0  9997
2 42015  97.2636 216.8341 0003852 315.4011  44.6920 15.31348611294479
AL-FARABI 1             
1 42016U 17008BW  22153.15760796  .00008748  00000+0  26739-3 0  9999
2 42016  97.2700 219.4873 0003289 306.7409  53.3532 15.34101439294709
NAYIF-1 (EO-88)         
1 42017U 17008BX  22153.43481736  .00009175  00000+0  27913-3 0  9995
2 42017  97.2690 219.7707 0003367 301.4179  58.6735 15.34233817294776
UCLSAT                  
1 42765U 17036A   22153.34298261  .00007328  00000+0  25859-3 0  9990
2 42765  97.1977 196.4826 0009724  30.1676 330.0122 15.29479609275543
LITUANICASAT-2          
1 42768U 17036D   22153.34554590  .00015392  00000+0  45527-3 0  9997
2 42768  97.2062 199.0335 0009731  11.1376 349.0081 15.34950787274933
AALTO-1                 
1 42775U 17036L   22153.54369001  .00004355  00000+0  17449-3 0  9997
2 42775  97.1978 191.8473 0013017  27.9481 332.2454 15.25462038274501
URSA MAIOR              
1 42776U 17036M   22153.33321290  .00004796  00000+0  18888-3 0  9990
2 42776  97.1993 192.3577 0012658  27.7738 332.4175 15.25992971274509
COMPASS 2               
1 42777U 17036N   22153.08134003  .00011645  00000+0  37746-3 0  9992
2 42777  97.2049 198.2182 0009258  18.2671 341.8902 15.32106200274796
